O3B FM10                
1 40348U 14083A   26115.58813625 -.00000027  00000+0  00000+0 0  9996
2 40348   0.0389 337.7556 0002654  57.6099 324.6504  5.00115287207260
O3B FM11                
1 40349U 14083B   26115.80071183 -.00000027  00000+0  00000+0 0  9997
2 40349   0.0578 359.3740 0002920  21.6263 339.0099  5.00115566207287
O3B FM12                
1 40350U 14083C   26115.62787834 -.00000027  00000+0  00000+0 0  9996
2 40350   0.0570 359.0098 0002564  31.7513 329.2522  5.00115921207296
O3B FM9                 
1 40351U 14083D   26115.65471021 -.00000027  00000+0  00000+0 0  9998
2 40351   0.0590 359.1750 0002708  34.7092 326.1314  5.00115907207446
ASTRA 2G                
1 40364U 14089A   26115.78658564  .00000136  00000+0  00000+0 0  9991
2 40364   0.0561  27.8534 0004731  15.3450 121.9537  1.00270672 41449
SES-9                   
1 41380U 16013A   26115.30335249 -.00000359  00000+0  00000+0 0  9997
2 41380   0.0157 283.6595 0002085 131.0003  16.1562  1.00270388 36900
SES-10                  
1 42432U 17017A   26115.48251219 -.00000287  00000+0  00000+0 0  9994
2 42432   0.0279  19.5648 0002760  28.9043 271.8375  1.00271333 33222
SES-15                  
1 42709U 17026A   26115.68411983  .00000046  00000+0  00000+0 0  9991
2 42709   0.0249 331.2396 0000623  35.8861 323.6956  1.00270298  6906
SES-11 (ECHOSTAR 105)   
1 42967U 17063A   26115.62544728  .00000000  00000+0  00000+0 0  9996
2 42967   0.0183  66.9859 0002830 354.4718 272.3918  1.00269593 31191
SES-14                  
1 43175U 18012B   26115.34375809 -.00000293  00000+0  00000+0 0  9999
2 43175   0.0424  58.4384 0000817 327.3476 263.8372  1.00271764  6490
O3B FM15                
1 43231U 18024A   26115.72149344 -.00000027  00000+0  00000+0 0  9995
2 43231   0.0510   4.1856 0002640  27.8727 327.9560  5.00115745148407
O3B FM16                
1 43232U 18024B   26115.57395656 -.00000027  00000+0  00000+0 0  9998
2 43232   0.0487   8.2237 0002686  22.2350 329.5551  5.00115813148314
O3B FM14                
1 43233U 18024C   26115.01506422 -.00000027  00000+0  00000+0 0  9993
2 43233   0.0471   8.1994 0002861  26.7396 325.0779  5.00115692148296
O3B FM13                
1 43234U 18024D   26115.08092587 -.00000027  00000+0  00000+0 0  9993
2 43234   0.0559 329.1327 0003596  20.8365  10.0218  5.00115557148409
SES-12                  
1 43488U 18049A   26115.70060073  .00000000  00000+0  00000+0 0  9995
2 43488   0.0179  73.5211 0001355 240.0909 247.3260  1.00268792 28899
O3B FM20                
1 44112U 19020A   26115.64077483 -.00000027  00000+0  00000+0 0  9996
2 44112   0.0532   1.2981 0002590  23.0291 335.6833  5.00115501128941
O3B FM19                
1 44113U 19020B   26111.67003593 -.00000022  00000+0  00000+0 0  9992
2 44113   0.0716 348.2754 0003491  26.5306 345.2041  5.00115966128611
