[{"OBJECT_NAME":"O3B FM10","OBJECT_ID":"2014-083A","EPOCH":"2026-04-25T14:06:54.972000","MEAN_MOTION":5.00115287,"ECCENTRICITY":0.0002654,"INCLINATION":0.0389,"RA_OF_ASC_NODE":337.7556,"ARG_OF_PERICENTER":57.6099,"MEAN_ANOMALY":324.6504,"EPHEMERIS_TYPE":0,"CLASSIFICATION_TYPE":"U","NORAD_CAT_ID":40348,"ELEMENT_SET_NO":999,"REV_AT_EPOCH":20726,"BSTAR":0,"MEAN_MOTION_DOT":-2.7e-7,"MEAN_MOTION_DDOT":0},{"OBJECT_NAME":"O3B FM11","OBJECT_ID":"2014-083B","EPOCH":"2026-04-25T19:13:01.502112","MEAN_MOTION":5.00115566,"ECCENTRICITY":0.000292,"INCLINATION":0.0578,"RA_OF_ASC_NODE":359.374,"ARG_OF_PERICENTER":21.6263,"MEAN_ANOMALY":339.0099,"EPHEMERIS_TYPE":0,"CLASSIFICATION_TYPE":"U","NORAD_CAT_ID":40349,"ELEMENT_SET_NO":999,"REV_AT_EPOCH":20728,"BSTAR":0,"MEAN_MOTION_DOT":-2.7e-7,"MEAN_MOTION_DDOT":0},{"OBJECT_NAME":"O3B FM12","OBJECT_ID":"2014-083C","EPOCH":"2026-04-25T15:04:08.688576","MEAN_MOTION":5.00115921,"ECCENTRICITY":0.0002564,"INCLINATION":0.057,"RA_OF_ASC_NODE":359.0098,"ARG_OF_PERICENTER":31.7513,"MEAN_ANOMALY":329.2522,"EPHEMERIS_TYPE":0,"CLASSIFICATION_TYPE":"U","NORAD_CAT_ID":40350,"ELEMENT_SET_NO":999,"REV_AT_EPOCH":20729,"BSTAR":0,"MEAN_MOTION_DOT":-2.7e-7,"MEAN_MOTION_DDOT":0},{"OBJECT_NAME":"O3B FM9","OBJECT_ID":"2014-083D","EPOCH":"2026-04-25T15:42:46.962144","MEAN_MOTION":5.00115907,"ECCENTRICITY":0.0002708,"INCLINATION":0.059,"RA_OF_ASC_NODE":359.175,"ARG_OF_PERICENTER":34.7092,"MEAN_ANOMALY":326.1314,"EPHEMERIS_TYPE":0,"CLASSIFICATION_TYPE":"U","NORAD_CAT_ID":40351,"ELEMENT_SET_NO":999,"REV_AT_EPOCH":20744,"BSTAR":0,"MEAN_MOTION_DOT":-2.7e-7,"MEAN_MOTION_DDOT":0},{"OBJECT_NAME":"ASTRA 2G","OBJECT_ID":"2014-089A","EPOCH":"2026-04-25T18:52:40.999296","MEAN_MOTION":1.00270672,"ECCENTRICITY":0.0004731,"INCLINATION":0.0561,"RA_OF_ASC_NODE":27.8534,"ARG_OF_PERICENTER":15.345,"MEAN_ANOMALY":121.9537,"EPHEMERIS_TYPE":0,"CLASSIFICATION_TYPE":"U","NORAD_CAT_ID":40364,"ELEMENT_SET_NO":999,"REV_AT_EPOCH":4144,"BSTAR":0,"MEAN_MOTION_DOT":1.36e-6,"MEAN_MOTION_DDOT":0},{"OBJECT_NAME":"SES-9","OBJECT_ID":"2016-013A","EPOCH":"2026-04-25T07:16:49.655136","MEAN_MOTION":1.00270388,"ECCENTRICITY":0.0002085,"INCLINATION":0.0157,"RA_OF_ASC_NODE":283.6595,"ARG_OF_PERICENTER":131.0003,"MEAN_ANOMALY":16.1562,"EPHEMERIS_TYPE":0,"CLASSIFICATION_TYPE":"U","NORAD_CAT_ID":41380,"ELEMENT_SET_NO":999,"REV_AT_EPOCH":3690,"BSTAR":0,"MEAN_MOTION_DOT":-3.59e-6,"MEAN_MOTION_DDOT":0},{"OBJECT_NAME":"SES-10","OBJECT_ID":"2017-017A","EPOCH":"2026-04-25T11:34:49.053216","MEAN_MOTION":1.00271333,"ECCENTRICITY":0.000276,"INCLINATION":0.0279,"RA_OF_ASC_NODE":19.5648,"ARG_OF_PERICENTER":28.9043,"MEAN_ANOMALY":271.8375,"EPHEMERIS_TYPE":0,"CLASSIFICATION_TYPE":"U","NORAD_CAT_ID":42432,"ELEMENT_SET_NO":999,"REV_AT_EPOCH":3322,"BSTAR":0,"MEAN_MOTION_DOT":-2.87e-6,"MEAN_MOTION_DDOT":0},{"OBJECT_NAME":"SES-15","OBJECT_ID":"2017-026A","EPOCH":"2026-04-25T16:25:07.953312","MEAN_MOTION":1.00270298,"ECCENTRICITY":6.23e-5,"INCLINATION":0.0249,"RA_OF_ASC_NODE":331.2396,"ARG_OF_PERICENTER":35.8861,"MEAN_ANOMALY":323.6956,"EPHEMERIS_TYPE":0,"CLASSIFICATION_TYPE":"U","NORAD_CAT_ID":42709,"ELEMENT_SET_NO":999,"REV_AT_EPOCH":690,"BSTAR":0,"MEAN_MOTION_DOT":4.6e-7,"MEAN_MOTION_DDOT":0},{"OBJECT_NAME":"SES-11 (ECHOSTAR 105)","OBJECT_ID":"2017-063A","EPOCH":"2026-04-25T15:00:38.644992","MEAN_MOTION":1.00269593,"ECCENTRICITY":0.000283,"INCLINATION":0.0183,"RA_OF_ASC_NODE":66.9859,"ARG_OF_PERICENTER":354.4718,"MEAN_ANOMALY":272.3918,"EPHEMERIS_TYPE":0,"CLASSIFICATION_TYPE":"U","NORAD_CAT_ID":42967,"ELEMENT_SET_NO":999,"REV_AT_EPOCH":3119,"BSTAR":0,"MEAN_MOTION_DOT":0,"MEAN_MOTION_DDOT":0},{"OBJECT_NAME":"SES-14","OBJECT_ID":"2018-012B","EPOCH":"2026-04-25T08:15:00.698976","MEAN_MOTION":1.00271764,"ECCENTRICITY":8.17e-5,"INCLINATION":0.0424,"RA_OF_ASC_NODE":58.4384,"ARG_OF_PERICENTER":327.3476,"MEAN_ANOMALY":263.8372,"EPHEMERIS_TYPE":0,"CLASSIFICATION_TYPE":"U","NORAD_CAT_ID":43175,"ELEMENT_SET_NO":999,"REV_AT_EPOCH":649,"BSTAR":0,"MEAN_MOTION_DOT":-2.93e-6,"MEAN_MOTION_DDOT":0},{"OBJECT_NAME":"O3B FM15","OBJECT_ID":"2018-024A","EPOCH":"2026-04-25T17:18:57.033216","MEAN_MOTION":5.00115745,"ECCENTRICITY":0.000264,"INCLINATION":0.051,"RA_OF_ASC_NODE":4.1856,"ARG_OF_PERICENTER":27.8727,"MEAN_ANOMALY":327.956,"EPHEMERIS_TYPE":0,"CLASSIFICATION_TYPE":"U","NORAD_CAT_ID":43231,"ELEMENT_SET_NO":999,"REV_AT_EPOCH":14840,"BSTAR":0,"MEAN_MOTION_DOT":-2.7e-7,"MEAN_MOTION_DDOT":0},{"OBJECT_NAME":"O3B FM16","OBJECT_ID":"2018-024B","EPOCH":"2026-04-25T13:46:29.846784","MEAN_MOTION":5.00115813,"ECCENTRICITY":0.0002686,"INCLINATION":0.0487,"RA_OF_ASC_NODE":8.2237,"ARG_OF_PERICENTER":22.235,"MEAN_ANOMALY":329.5551,"EPHEMERIS_TYPE":0,"CLASSIFICATION_TYPE":"U","NORAD_CAT_ID":43232,"ELEMENT_SET_NO":999,"REV_AT_EPOCH":14831,"BSTAR":0,"MEAN_MOTION_DOT":-2.7e-7,"MEAN_MOTION_DDOT":0},{"OBJECT_NAME":"O3B FM14","OBJECT_ID":"2018-024C","EPOCH":"2026-04-25T00:21:41.548608","MEAN_MOTION":5.00115692,"ECCENTRICITY":0.00028613,"INCLINATION":0.0471,"RA_OF_ASC_NODE":8.1994,"ARG_OF_PERICENTER":26.7396,"MEAN_ANOMALY":325.0779,"EPHEMERIS_TYPE":0,"CLASSIFICATION_TYPE":"U","NORAD_CAT_ID":43233,"ELEMENT_SET_NO":999,"REV_AT_EPOCH":14829,"BSTAR":0,"MEAN_MOTION_DOT":-2.7e-7,"MEAN_MOTION_DDOT":0},{"OBJECT_NAME":"O3B FM13","OBJECT_ID":"2018-024D","EPOCH":"2026-04-25T01:56:31.995168","MEAN_MOTION":5.00115557,"ECCENTRICITY":0.00035963,"INCLINATION":0.0559,"RA_OF_ASC_NODE":329.1327,"ARG_OF_PERICENTER":20.8365,"MEAN_ANOMALY":10.0218,"EPHEMERIS_TYPE":0,"CLASSIFICATION_TYPE":"U","NORAD_CAT_ID":43234,"ELEMENT_SET_NO":999,"REV_AT_EPOCH":14840,"BSTAR":0,"MEAN_MOTION_DOT":-2.7e-7,"MEAN_MOTION_DDOT":0},{"OBJECT_NAME":"SES-12","OBJECT_ID":"2018-049A","EPOCH":"2026-04-25T16:48:51.903072","MEAN_MOTION":1.00268792,"ECCENTRICITY":0.0001355,"INCLINATION":0.0179,"RA_OF_ASC_NODE":73.5211,"ARG_OF_PERICENTER":240.0909,"MEAN_ANOMALY":247.326,"EPHEMERIS_TYPE":0,"CLASSIFICATION_TYPE":"U","NORAD_CAT_ID":43488,"ELEMENT_SET_NO":999,"REV_AT_EPOCH":2889,"BSTAR":0,"MEAN_MOTION_DOT":0,"MEAN_MOTION_DDOT":0},{"OBJECT_NAME":"O3B FM20","OBJECT_ID":"2019-020A","EPOCH":"2026-04-25T15:22:42.945312","MEAN_MOTION":5.00115501,"ECCENTRICITY":0.000259,"INCLINATION":0.0532,"RA_OF_ASC_NODE":1.2981,"ARG_OF_PERICENTER":23.0291,"MEAN_ANOMALY":335.6833,"EPHEMERIS_TYPE":0,"CLASSIFICATION_TYPE":"U","NORAD_CAT_ID":44112,"ELEMENT_SET_NO":999,"REV_AT_EPOCH":12894,"BSTAR":0,"MEAN_MOTION_DOT":-2.7e-7,"MEAN_MOTION_DDOT":0},{"OBJECT_NAME":"O3B FM19","OBJECT_ID":"2019-020B","EPOCH":"2026-04-21T16:04:51.104352","MEAN_MOTION":5.00115966,"ECCENTRICITY":0.0003491,"INCLINATION":0.0716,"RA_OF_ASC_NODE":348.2754,"ARG_OF_PERICENTER":26.5306,"MEAN_ANOMALY":345.2041,"EPHEMERIS_TYPE":0,"CLASSIFICATION_TYPE":"U","NORAD_CAT_ID":44113,"ELEMENT_SET_NO":999,"REV_AT_EPOCH":12861,"BSTAR":0,"MEAN_MOTION_DOT":-2.2e-7,"MEAN_MOTION_DDOT":0}]
